ONEWEB-0249             
1 48967U 21060A   25051.83935700 -.00000007  00000+0 -52081-4 0  9999
2 48967  87.9125 324.7141 0001769  74.8803 285.2523 13.16593642177566
ONEWEB-0250             
1 48968U 21060B   25051.50991308  .00000057  00000+0  99287-4 0  9992
2 48968  87.9124 324.1103 0002894  72.3148 287.8304 13.25701991176396
ONEWEB-0252             
1 48970U 21060D   25051.49103146  .00000041  00000+0  74711-4 0  9996
2 48970  87.9125 324.7766 0001519  88.5834 271.5471 13.16592330176272
ONEWEB-0253             
1 48971U 21060E   25051.17596251  .00000006  00000+0 -16797-4 0  9997
2 48971  87.9122 324.8460 0001958  83.1869 276.9484 13.16592850176166
ONEWEB-0254             
1 48972U 21060F   25051.48945746 -.00000003  00000+0 -42270-4 0  9992
2 48972  87.9124 324.7659 0002262  79.2890 280.8496 13.16595550176209
ONEWEB-0255             
1 48973U 21060G   25051.45145466  .00000089  00000+0  19844-3 0  9993
2 48973  87.9127 324.8070 0002047  79.8335 280.3026 13.16593870176276
ONEWEB-0256             
1 48974U 21060H   25051.47758194 -.00000044  00000+0 -14765-3 0  9994
2 48974  87.9127 324.8129 0001630  81.4431 278.6885 13.16594847176240
ONEWEB-0257             
1 48975U 21060J   25051.51004691  .00000055  00000+0  10999-3 0  9991
2 48975  87.9125 324.7704 0001883  84.1696 275.9649 13.16594930176207
